{"type": "FeatureCollection", "features": [ {"type": "Feature", "properties": {"norad_id": 34031, "name": "COSMOS 2251 DEB", "group": "cosmos-2251-debris", "lat": -65.67192459453129, "lon": 78.93062428251996, "alt_km": 690.418147386973, "timestamp": "2025-12-21T20:41:08.349415+00:00", "meta": {"OBJECT_NAME": "COSMOS 2251 DEB", "OBJECT_ID": "1993-036HS", "EPOCH": "2025-12-21T09:45:25.699680", "MEAN_MOTION": 14.5977685, "ECCENTRICITY": 0.00229271, "INCLINATION": 74.0132, "RA_OF_ASC_NODE": 119.154, "ARG_OF_PERICENTER": 239.1097, "MEAN_ANOMALY": 177.3035, "EPHEMERIS_TYPE": 0, "CLASSIFICATION_TYPE": "U", "NORAD_CAT_ID": 34031, "ELEMENT_SET_NO": 999, "REV_AT_EPOCH": 88692, "BSTAR": 0.00094729103, "MEAN_MOTION_DOT": 4.513e-05, "MEAN_MOTION_DDOT": 0}, "tle": {"line1": "1 34031U 93036HS  25355.40654745  .00004513  00000+0  94729-3 0  9993", "line2": "2 34031  74.0132 119.1540 0022927 239.1097 177.3035 14.59776850886925"}}, "geometry": {"type": "Point", "coordinates": [78.93062428251996, -65.67192459453129]}}, {"type": "Feature", "properties": {"norad_id": 34035, "name": "COSMOS 2251 DEB", "group": "cosmos-2251-debris", "lat": -16.51677445519951, "lon": 156.84350691722622, "alt_km": 745.8954405632685, "timestamp": "2025-12-21T20:41:08.349424+00:00", "meta": {"OBJECT_NAME": "COSMOS 2251 DEB", "OBJECT_ID": "1993-036HW", "EPOCH": "2025-12-20T16:27:56.877408", "MEAN_MOTION": 14.52033624, "ECCENTRICITY": 0.00451767, "INCLINATION": 74.0655, "RA_OF_ASC_NODE": 334.1941, "ARG_OF_PERICENTER": 334.1122, "MEAN_ANOMALY": 199.4071, "EPHEMERIS_TYPE": 0, "CLASSIFICATION_TYPE": "U", "NORAD_CAT_ID": 34035, "ELEMENT_SET_NO": 999, "REV_AT_EPOCH": 88081, "BSTAR": 0.0010888868, "MEAN_MOTION_DOT": 4.435e-05, "MEAN_MOTION_DDOT": 0}, "tle": {"line1": "1 34035U 93036HW  25354.68607497  .00004435  00000+0  10889-2 0  9995", "line2": "2 34035  74.0655 334.1941 0045176 334.1122 199.4071 14.52033624880814"}}, "geometry": {"type": "Point", "coordinates": [156.84350691722622, -16.51677445519951]}}, {"type": "Feature", "properties": {"norad_id": 34036, "name": "COSMOS 2251 DEB", "group": "cosmos-2251-debris", "lat": 70.50627723953527, "lon": -175.10578937446226, "alt_km": 572.1131375540936, "timestamp": "2025-12-21T20:41:08.349433+00:00", "meta": {"OBJECT_NAME": "COSMOS 2251 DEB", "OBJECT_ID": "1993-036HX", "EPOCH": "2025-12-21T09:05:49.640064", "MEAN_MOTION": 14.95593428, "ECCENTRICITY": 0.00106864, "INCLINATION": 74.0196, "RA_OF_ASC_NODE": 131.8191, "ARG_OF_PERICENTER": 161.0492, "MEAN_ANOMALY": 199.1092, "EPHEMERIS_TYPE": 0, "CLASSIFICATION_TYPE": "U", "NORAD_CAT_ID": 34036, "ELEMENT_SET_NO": 999, "REV_AT_EPOCH": 88699, "BSTAR": 0.0030710226, "MEAN_MOTION_DOT": 0.00034269, "MEAN_MOTION_DDOT": 0}, "tle": {"line1": "1 34036U 93036HX  25355.37904676  .00034269  00000+0  30710-2 0  9995", "line2": "2 34036  74.0196 131.8191 0010686 161.0492 199.1092 14.95593428886994"}}, "geometry": {"type": "Point", "coordinates": [-175.10578937446226, 70.50627723953527]}}, {"type": "Feature", "properties": {"norad_id": 34037, "name": "COSMOS 2251 DEB", "group": "cosmos-2251-debris", "lat": -49.13576750948048, "lon": 14.445199804561458, "alt_km": 807.6613870452938, "timestamp": "2025-12-21T20:41:08.349442+00:00", "meta": {"OBJECT_NAME": "COSMOS 2251 DEB", "OBJECT_ID": "1993-036HY", "EPOCH": "2025-12-21T12:33:36.263232", "MEAN_MOTION": 14.3468568, "ECCENTRICITY": 0.00518039, "INCLINATION": 74.0511, "RA_OF_ASC_NODE": 34.3664, "ARG_OF_PERICENTER": 81.6263, "MEAN_ANOMALY": 279.0758, "EPHEMERIS_TYPE": 0, "CLASSIFICATION_TYPE": "U", "NORAD_CAT_ID": 34037, "ELEMENT_SET_NO": 999, "REV_AT_EPOCH": 87843, "BSTAR": 0.00033636809, "MEAN_MOTION_DOT": 9.41e-06, "MEAN_MOTION_DDOT": 0}, "tle": {"line1": "1 34037U 93036HY  25355.52333638  .00000941  00000+0  33637-3 0  9999", "line2": "2 34037  74.0511  34.3664 0051803  81.6263 279.0758 14.34685680878439"}}, "geometry": {"type": "Point", "coordinates": [14.445199804561458, -49.13576750948048]}}, {"type": "Feature", "properties": {"norad_id": 34040, "name": "COSMOS 2251 DEB", "group": "cosmos-2251-debris", "lat": -3.3776290906072908, "lon": -128.23685480405624, "alt_km": 1261.813091321309, "timestamp": "2025-12-21T20:41:08.349452+00:00", "meta": {"OBJECT_NAME": "COSMOS 2251 DEB", "OBJECT_ID": "1993-036JB", "EPOCH": "2025-12-21T12:46:28.867584", "MEAN_MOTION": 13.6838786, "ECCENTRICITY": 0.03433378, "INCLINATION": 73.9556, "RA_OF_ASC_NODE": 51.3345, "ARG_OF_PERICENTER": 2.9157, "MEAN_ANOMALY": 357.385, "EPHEMERIS_TYPE": 0, "CLASSIFICATION_TYPE": "U", "NORAD_CAT_ID": 34040, "ELEMENT_SET_NO": 999, "REV_AT_EPOCH": 83720, "BSTAR": 0.00059140508, "MEAN_MOTION_DOT": 7.4e-06, "MEAN_MOTION_DDOT": 0}, "tle": {"line1": "1 34040U 93036JB  25355.53227856  .00000740  00000+0  59141-3 0  9993", "line2": "2 34040  73.9556  51.3345 0343337   2.9157 357.3850 13.68387860837207"}}, "geometry": {"type": "Point", "coordinates": [-128.23685480405624, -3.3776290906072908]}}, {"type": "Feature", "properties": {"norad_id": 34045, "name": "COSMOS 2251 DEB", "group": "cosmos-2251-debris", "lat": -25.784819153009966, "lon": -73.80640133693085, "alt_km": 769.5421853963317, "timestamp": "2025-12-21T20:41:08.349461+00:00", "meta": {"OBJECT_NAME": "COSMOS 2251 DEB", "OBJECT_ID": "1993-036JG", "EPOCH": "2025-12-21T14:56:25.442880", "MEAN_MOTION": 14.34073448, "ECCENTRICITY": 0.00260311, "INCLINATION": 74.0395, "RA_OF_ASC_NODE": 294.5782, "ARG_OF_PERICENTER": 15.6121, "MEAN_ANOMALY": 162.4222, "EPHEMERIS_TYPE": 0, "CLASSIFICATION_TYPE": "U", "NORAD_CAT_ID": 34045, "ELEMENT_SET_NO": 999, "REV_AT_EPOCH": 88160, "BSTAR": 8.0554591e-05, "MEAN_MOTION_DOT": 2e-06, "MEAN_MOTION_DDOT": 0}, "tle": {"line1": "1 34045U 93036JG  25355.62251670  .00000200  00000+0  80555-4 0  9994", "line2": "2 34045  74.0395 294.5782 0026031  15.6121 162.4222 14.34073448881601"}}, "geometry": {"type": "Point", "coordinates": [-73.80640133693085, -25.784819153009966]}}, {"type": "Feature", "properties": {"norad_id": 34046, "name": "COSMOS 2251 DEB", "group": "cosmos-2251-debris", "lat": 9.057600874877181, "lon": -3.9440601240145137, "alt_km": 715.3752983718032, "timestamp": "2025-12-21T20:41:08.349471+00:00", "meta": {"OBJECT_NAME": "COSMOS 2251 DEB", "OBJECT_ID": "1993-036JH", "EPOCH": "2025-12-20T01:44:37.329792", "MEAN_MOTION": 14.46526924, "ECCENTRICITY": 0.00744564, "INCLINATION": 74.0389, "RA_OF_ASC_NODE": 356.7805, "ARG_OF_PERICENTER": 78.006, "MEAN_ANOMALY": 338.5486, "EPHEMERIS_TYPE": 0, "CLASSIFICATION_TYPE": "U", "NORAD_CAT_ID": 34046, "ELEMENT_SET_NO": 999, "REV_AT_EPOCH": 87932, "BSTAR": 0.00078666467, "MEAN_MOTION_DOT": 2.906e-05, "MEAN_MOTION_DDOT": 0}, "tle": {"line1": "1 34046U 93036JH  25354.07265428  .00002906  00000+0  78666-3 0  9993", "line2": "2 34046  74.0389 356.7805 0074456  78.0060 338.5486 14.46526924879320"}}, "geometry": {"type": "Point", "coordinates": [-3.9440601240145137, 9.057600874877181]}}, {"type": "Feature", "properties": {"norad_id": 34050, "name": "COSMOS 2251 DEB", "group": "cosmos-2251-debris", "lat": 32.92384978663893, "lon": 5.0486838619848236, "alt_km": 758.9671854349963, "timestamp": "2025-12-21T20:41:08.349481+00:00", "meta": {"OBJECT_NAME": "COSMOS 2251 DEB", "OBJECT_ID": "1993-036JM", "EPOCH": "2025-12-21T06:52:34.412160", "MEAN_MOTION": 13.96199106, "ECCENTRICITY": 0.0214703, "INCLINATION": 74.0882, "RA_OF_ASC_NODE": 355.3911, "ARG_OF_PERICENTER": 57.5144, "MEAN_ANOMALY": 326.9126, "EPHEMERIS_TYPE": 0, "CLASSIFICATION_TYPE": "U", "NORAD_CAT_ID": 34050, "ELEMENT_SET_NO": 999, "REV_AT_EPOCH": 85551, "BSTAR": 0.00060759, "MEAN_MOTION_DOT": 9.92e-06, "MEAN_MOTION_DDOT": 0}, "tle": {"line1": "1 34050U 93036JM  25355.28650940  .00000992  00000+0  60759-3 0  9996", "line2": "2 34050  74.0882 355.3911 0214703  57.5144 326.9126 13.96199106855511"}}, "geometry": {"type": "Point", "coordinates": [5.0486838619848236, 32.92384978663893]}}, {"type": "Feature", "properties": {"norad_id": 34053, "name": "COSMOS 2251 DEB", "group": "cosmos-2251-debris", "lat": -71.59567507281835, "lon": 108.06984213427656, "alt_km": 1196.2694440307623, "timestamp": "2025-12-21T20:41:08.349490+00:00", "meta": {"OBJECT_NAME": "COSMOS 2251 DEB", "OBJECT_ID": "1993-036JQ", "EPOCH": "2025-12-20T16:41:14.361504", "MEAN_MOTION": 13.49172922, "ECCENTRICITY": 0.04226751, "INCLINATION": 73.8433, "RA_OF_ASC_NODE": 229.3517, "ARG_OF_PERICENTER": 16.5958, "MEAN_ANOMALY": 344.8501, "EPHEMERIS_TYPE": 0, "CLASSIFICATION_TYPE": "U", "NORAD_CAT_ID": 34053, "ELEMENT_SET_NO": 999, "REV_AT_EPOCH": 82791, "BSTAR": 0.00050236834, "MEAN_MOTION_DOT": 5.27e-06, "MEAN_MOTION_DDOT": 0}, "tle": {"line1": "1 34053U 93036JQ  25354.69530511  .00000527  00000+0  50237-3 0  9998", "line2": "2 34053  73.8433 229.3517 0422675  16.5958 344.8501 13.49172922827916"}}, "geometry": {"type": "Point", "coordinates": [108.06984213427656, -71.59567507281835]}}, {"type": "Feature", "properties": {"norad_id": 34056, "name": "COSMOS 2251 DEB", "group": "cosmos-2251-debris", "lat": -72.06385990044753, "lon": -57.925381978300976, "alt_km": 911.6702418223804, "timestamp": "2025-12-21T20:41:08.349500+00:00", "meta": {"OBJECT_NAME": "COSMOS 2251 DEB", "OBJECT_ID": "1993-036JT", "EPOCH": "2025-12-21T13:14:36.024576", "MEAN_MOTION": 14.20584801, "ECCENTRICITY": 0.01237428, "INCLINATION": 74.0585, "RA_OF_ASC_NODE": 60.6201, "ARG_OF_PERICENTER": 106.1332, "MEAN_ANOMALY": 9.7246, "EPHEMERIS_TYPE": 0, "CLASSIFICATION_TYPE": "U", "NORAD_CAT_ID": 34056, "ELEMENT_SET_NO": 999, "REV_AT_EPOCH": 86536, "BSTAR": 0.00054666015, "MEAN_MOTION_DOT": 1.246e-05, "MEAN_MOTION_DDOT": 0}, "tle": {"line1": "1 34056U 93036JT  25355.55180584  .00001246  00000+0  54666-3 0  9997", "line2": "2 34056  74.0585  60.6201 0123742 106.1332   9.7246 14.20584801865368"}}, "geometry": {"type": "Point", "coordinates": [-57.925381978300976, -72.06385990044753]}}]}